STARLINK-31871          
1 59673U 24084V   26068.29415533 -.00000438  00000+0 -64246-5 0  9995
2 59673  43.0001  43.9358 0000478 237.1288 122.9518 15.27566683104318
2025-313BE              
1 67482U 25313BE  26068.69721505  .00077178  00000+0  26504-2 0  9996
2 67482  97.3989 145.3568 0007208 335.3714  24.7181 15.29801687  7972
